NORAD_CAT_ID,OBJECT_NAME,OBJECT_TYPE,EPOCH,MEAN_MOTION,ECCENTRICITY,INCLINATION,RA_OF_ASC_NODE,ARG_OF_PERICENTER,MEAN_ANOMALY,BSTAR,MEAN_MOTION_DOT,MEAN_MOTION_DDOT,TLE_LINE0,TLE_LINE1,TLE_LINE2,SEMIMAJOR_AXIS,PERIOD,APOGEE,PERIGEE,DECAYED
51975.0,STARLINK-3674,PAYLOAD,2024-04-04 07:06:30,15.06397674,0.0001133,53.0558,308.983,98.3862,261.7256,3.9321e-05,3.04e-06,0.0,0 STARLINK-3674,1 51975U 22025V   24095.29618390  .00000304  00000-0  39321-4 0  9995,2 51975  53.0558 308.9830 0001133  98.3862 261.7256 15.06397674114812,6925.356,95.592,548.005,546.436,0.0
51975.0,STARLINK-3674,PAYLOAD,2024-04-04 19:50:49,15.06400626,0.0001155,53.0553,306.6,97.824,262.288,9.4835e-05,1.131e-05,0.0,0 STARLINK-3674,1 51975U 22025V   24095.82695614  .00001131  00000-0  94835-4 0  9998,2 51975  53.0553 306.6000 0001155  97.8240 262.2880 15.06400626116003,6925.347,95.592,548.012,546.412,0.0
51975.0,STARLINK-3674,PAYLOAD,2024-04-05 06:59:35,15.06402035,0.0001137,53.0552,304.5147,94.5868,265.5251,9.9162e-05,1.196e-05,0.0,0 STARLINK-3674,1 51975U 22025V   24096.29138225  .00001196  00000-0  99162-4 0  9999,2 51975  53.0552 304.5147 0001137  94.5868 265.5251 15.06402035114968,6925.342,95.592,547.995,546.42,0.0
51975.0,STARLINK-3674,PAYLOAD,2024-04-05 21:19:26,15.06403168,0.0001142,53.0548,301.8339,90.486,269.626,0.00012109,1.523e-05,0.0,0 STARLINK-3674,1 51975U 22025V   24096.88850185  .00001523  00000-0  12109-3 0  9999,2 51975  53.0548 301.8339 0001142  90.4860 269.6260 15.06403168115053,6925.339,95.592,547.995,546.413,0.0
51975.0,STARLINK-3674,PAYLOAD,2024-04-05 22:54:58,15.06405156,0.0001153,53.0548,301.5358,89.9321,270.1801,0.00013541,1.736e-05,0.0,0 STARLINK-3674,1 51975U 22025V   24096.95484689  .00001736  00000-0  13541-3 0  9996,2 51975  53.0548 301.5358 0001153  89.9321 270.1801 15.06405156116179,6925.333,95.592,547.996,546.399,0.0
51975.0,STARLINK-3674,PAYLOAD,2024-04-06 13:14:50,15.06396952,0.00013,53.0556,298.8545,85.3943,274.7194,2.191e-05,4.5e-07,0.0,0 STARLINK-3674,1 51975U 22025V   24097.55197696  .00000045  00000-0  21910-4 0  9994,2 51975  53.0556 298.8545 0001300  85.3943 274.7194 15.06396952116266,6925.358,95.592,548.123,546.323,0.0
51975.0,STARLINK-3674,PAYLOAD,2024-04-06 22:48:04,15.06397939,0.0001269,53.0555,297.0676,85.5627,274.5506,7.3583e-06,-1.72e-06,0.0,0 STARLINK-3674,1 51975U 22025V   24097.95005729 -.00000172  00000-0  73583-5 0  9999,2 51975  53.0555 297.0676 0001269  85.5627 274.5506 15.06397939115211,6925.355,95.592,548.099,546.341,0.0
51975.0,STARLINK-3674,PAYLOAD,2024-04-07 13:07:56,15.06399404,0.000134,53.0556,294.3874,83.9901,276.1241,1.4338e-05,-6.8e-07,0.0,0 STARLINK-3674,1 51975U 22025V   24098.54717848 -.00000068  00000-0  14338-4 0  9993,2 51975  53.0556 294.3874 0001340  83.9901 276.1241 15.06399404115302,6925.35,95.592,548.143,546.287,0.0
51975.0,STARLINK-3674,PAYLOAD,2024-04-07 19:30:05,15.06401319,0.0001244,53.0552,293.1957,85.4421,274.671,5.9879e-05,6.11e-06,0.0,0 STARLINK-3674,1 51975U 22025V   24098.81256282  .00000611  00000-0  59879-4 0  9995,2 51975  53.0552 293.1957 0001244  85.4421 274.6710 15.06401319116454,6925.345,95.592,548.071,546.348,0.0
51975.0,STARLINK-3674,PAYLOAD,2024-04-08 13:01:01,15.06393842,0.0001252,53.053,289.9188,83.115,276.9981,8.277e-05,9.51e-06,0.0,0 STARLINK-3674,1 51975U 22025V   24099.54238331  .00000951  00000-0  82770-4 0  9994,2 51975  53.0530 289.9188 0001252  83.1150 276.9981 15.06393842116560,6925.367,95.593,548.099,546.365,0.0
51975.0,STARLINK-3674,PAYLOAD,2024-04-09 06:31:57,15.06398403,0.0001205,53.053,286.6441,77.2394,282.8729,7.4653e-05,8.31e-06,0.0,0 STARLINK-3674,1 51975U 22025V   24100.27219713  .00000831  00000-0  74653-4 0  9998,2 51975  53.0530 286.6441 0001205  77.2394 282.8729 15.06398403115561,6925.353,95.592,548.053,546.384,0.0
51975.0,STARLINK-3674,PAYLOAD,2024-04-09 19:16:16,15.06400638,0.0001008,53.0534,284.2613,75.5419,284.5682,0.00010873,1.339e-05,0.0,0 STARLINK-3674,1 51975U 22025V   24100.80296940  .00001339  00000-0  10873-3 0  9991,2 51975  53.0534 284.2613 0001008  75.5419 284.5682 15.06400638116753,6925.347,95.592,547.91,546.514,0.0
51975.0,STARLINK-3674,PAYLOAD,2024-04-10 04:49:30,15.06404551,0.0001322,53.0515,282.4732,82.7626,277.3513,0.0001411,1.821e-05,0.0,0 STARLINK-3674,1 51975U 22025V   24101.20104628  .00001821  00000-0  14110-3 0  9991,2 51975  53.0515 282.4732 0001322  82.7626 277.3513 15.06404551115708,6925.335,95.592,548.115,546.284,0.0
51975.0,STARLINK-3674,PAYLOAD,2024-04-10 19:09:23,15.06349758,0.0002012,53.0522,279.792,92.9295,267.1924,0.00070442,0.00010212,0.0,0 STARLINK-3674,1 51975U 22025V   24101.79819135  .00010212  00000-0  70442-3 0  9995,2 51975  53.0522 279.7920 0002012  92.9295 267.1924 15.06349758116909,6925.503,95.595,548.761,545.974,0.0
51975.0,STARLINK-3674,PAYLOAD,2024-04-10 22:20:27,15.06394927,0.000112,53.0533,279.197,95.8965,264.2152,2.3799e-05,7.3e-07,0.0,0 STARLINK-3674,1 51975U 22025V   24101.93087074  .00000073  00000-0  23799-4 0  9998,2 51975  53.0533 279.1970 0001120  95.8965 264.2152 15.06394927115813,6925.364,95.592,548.005,546.453,0.0
51975.0,STARLINK-3674,PAYLOAD,2024-04-11 04:42:36,15.06403256,0.0001675,53.0532,278.0051,92.4492,267.6689,-4.0356e-05,-8.83e-06,0.0,0 STARLINK-3674,1 51975U 22025V   24102.19625795 -.00000883  00000-0 -40356-4 0  9994,2 51975  53.0532 278.0051 0001675  92.4492 267.6689 15.06403256116968,6925.339,95.592,548.364,546.044,0.0
51975.0,STARLINK-3674,PAYLOAD,2024-04-11 11:04:46,15.06396884,0.0001289,53.0531,276.8144,90.102,270.0117,5.3579e-06,-2.02e-06,0.0,0 STARLINK-3674,1 51975U 22025V   24102.46164623 -.00000202  00000-0  53579-5 0  9998,2 51975  53.0531 276.8144 0001289  90.1020 270.0117 15.06396884115892,6925.358,95.592,548.116,546.33,0.0
51975.0,STARLINK-3674,PAYLOAD,2024-04-11 17:26:55,15.06395351,0.000137,53.055,275.6236,90.2391,269.8755,-2.2076e-05,-6.1e-06,0.0,0 STARLINK-3674,1 51975U 22025V   24102.72703629 -.00000610  00000-0 -22076-4 0  9993,2 51975  53.0550 275.6236 0001370  90.2391 269.8755 15.06395351117046,6925.363,95.592,548.177,546.279,0.0
51975.0,STARLINK-3674,PAYLOAD,2024-04-12 10:57:52,15.06392062,0.0001401,53.0548,272.3472,95.5705,264.5444,9.3549e-05,1.112e-05,0.0,0 STARLINK-3674,1 51975U 22025V   24103.45685228  .00001112  00000-0  93549-4 0  9997,2 51975  53.0548 272.3472 0001401  95.5705 264.5444 15.06392062116043,6925.373,95.593,548.208,546.268,0.0
51975.0,STARLINK-3674,PAYLOAD,2024-04-13 10:50:57,15.06398207,0.0001363,53.0552,267.8799,92.2411,267.8734,0.00014053,1.812e-05,0.0,0 STARLINK-3674,1 51975U 22025V   24104.45205247  .00001812  00000-0  14053-3 0  9996,2 51975  53.0552 267.8799 0001363  92.2411 267.8734 15.06398207117309,6925.354,95.592,548.163,546.275,0.0
51975.0,STARLINK-3674,PAYLOAD,2024-04-13 17:13:06,15.06402957,0.0001454,53.0553,266.6887,78.6294,281.4859,0.00016459,2.171e-05,0.0,0 STARLINK-3674,1 51975U 22025V   24104.71743775  .00002171  00000-0  16459-3 0  9999,2 51975  53.0553 266.6887 0001454  78.6294 281.4859 15.06402957116232,6925.339,95.592,548.211,546.198,0.0
51975.0,STARLINK-3674,PAYLOAD,2024-04-14 17:06:12,15.06401623,0.0001641,53.0567,262.2223,91.5537,268.5639,7.9585e-05,9.04e-06,0.0,0 STARLINK-3674,1 51975U 22025V   24105.71264321  .00000904  00000-0  79585-4 0  9997,2 51975  53.0567 262.2223 0001641  91.5537 268.5639 15.06401623117495,6925.344,95.592,548.345,546.072,0.0
51975.0,STARLINK-3674,PAYLOAD,2024-04-15 13:48:13,15.06403358,0.0001378,53.0566,258.3497,86.7843,273.3304,4.9361e-05,4.54e-06,0.0,0 STARLINK-3674,1 51975U 22025V   24106.57515102  .00000454  00000-0  49361-4 0  9997,2 51975  53.0566 258.3497 0001378  86.7843 273.3304 15.06403358116518,6925.338,95.592,548.158,546.249,0.0
51975.0,STARLINK-3674,PAYLOAD,2024-04-16 13:41:18,15.06401451,0.0001674,53.0561,253.8822,96.4898,263.6282,8.8884e-05,1.043e-05,0.0,0 STARLINK-3674,1 51975U 22025V   24107.57035224  .00001043  00000-0  88884-4 0  9998,2 51975  53.0561 253.8822 0001674  96.4898 263.6282 15.06401451117770,6925.344,95.592,548.368,546.05,0.0
51975.0,STARLINK-3674,PAYLOAD,2024-04-16 16:52:22,15.06414473,0.0001468,53.055,253.2841,70.273,289.8418,0.00028132,3.913e-05,0.0,0 STARLINK-3674,1 51975U 22025V   24107.70303922  .00003913  00000-0  28132-3 0  9993,2 51975  53.0550 253.2841 0001468  70.2730 289.8418 15.06414473117790,6925.304,95.591,548.186,546.153,0.0
51975.0,STARLINK-3674,PAYLOAD,2024-04-17 13:34:24,15.06396663,0.0001055,53.0542,249.4156,79.7579,280.3528,-1.4305e-05,-4.94e-06,0.0,0 STARLINK-3674,1 51975U 22025V   24108.56555724 -.00000494  00000-0 -14305-4 0  9998,2 51975  53.0542 249.4156 0001055  79.7579 280.3528 15.06396663117927,6925.359,95.592,547.954,546.493,0.0
51975.0,STARLINK-3674,PAYLOAD,2024-04-17 16:45:28,15.06401229,0.0001621,53.0546,248.817,72.2959,287.8207,9.2191e-05,1.092e-05,0.0,0 STARLINK-3674,1 51975U 22025V   24108.69824977  .00001092  00000-0  92191-4 0  9993,2 51975  53.0546 248.8170 0001621  72.2959 287.8207 15.06401229116839,6925.345,95.592,548.332,546.087,0.0
51975.0,STARLINK-3674,PAYLOAD,2024-04-18 08:40:53,15.06389151,0.0001474,53.0541,245.8399,83.8551,276.2606,1.221e-05,-1e-06,0.0,0 STARLINK-3674,1 51975U 22025V   24109.36172699 -.00000100  00000-0  12210-4 0  9999,2 51975  53.0541 245.8399 0001474  83.8551 276.2606 15.06389151118045,6925.382,95.593,548.268,546.226,0.0
51975.0,STARLINK-3674,PAYLOAD,2024-04-18 16:38:35,15.06393112,0.0001446,53.0546,244.3507,72.5614,287.5533,1.2665e-05,-9.3e-07,0.0,0 STARLINK-3674,1 51975U 22025V   24109.69346156 -.00000093  00000-0  12665-4 0  9991,2 51975  53.0546 244.3507 0001446  72.5614 287.5533 15.06393112116986,6925.37,95.593,548.236,546.233,0.0
51975.0,STARLINK-3674,PAYLOAD,2024-04-19 13:20:34,15.06415461,0.000139,53.0544,240.4773,96.2111,263.9036,0.0003108,4.353e-05,0.0,0 STARLINK-3674,1 51975U 22025V   24110.55595837  .00004353  00000-0  31080-3 0  9993,2 51975  53.0544 240.4773 0001390  96.2111 263.9036 15.06415461118226,6925.301,95.591,548.129,546.204,0.0
